OBJECT_NAME,OBJECT_ID,EPOCH,MEAN_MOTION,ECCENTRICITY,INCLINATION,RA_OF_ASC_NODE,ARG_OF_PERICENTER,MEAN_ANOMALY,EPHEMERIS_TYPE,CLASSIFICATION_TYPE,NORAD_CAT_ID,ELEMENT_SET_NO,REV_AT_EPOCH,BSTAR,MEAN_MOTION_DOT,MEAN_MOTION_DDOT
COSMO-SKYMED 1,2007-023A,2026-07-12T19:11:10.263840,14.97212324,.0001224,97.8844,25.8719,102.8755,257.2603,0,U,31598,999,3362,.11913E-3,.1318E-4,0
COSMOS 2428,2007-029A,2026-07-12T16:49:27.300288,14.12932980,.00072,70.9382,300.9081,86.1006,274.0938,0,U,31792,999,98175,.1272E-3,.189E-5,0
SL-16 R/B,2007-029B,2026-07-12T15:38:40.939008,14.14850888,.0002011,70.9746,269.6994,256.4478,265.5117,0,U,31793,999,98304,.51587E-4,.52E-6,0
KORONAS-FOTON,2009-003A,2026-07-12T20:08:35.907072,15.46262940,.0012341,82.4300,145.4905,69.5285,290.7288,0,U,33504,999,96506,.18469E-3,.9153E-4,0
CZ-2C R/B,2011-030B,2026-07-12T20:02:35.250144,14.81529839,.0050927,97.8668,148.7614,304.0441,83.9286,0,U,37731,999,80862,.76197E-4,.555E-5,0
H-2A R/B,2012-025E,2026-07-12T12:14:44.898432,14.95833596,.00423519,98.4848,170.7478,264.2031,95.4358,0,U,38341,999,76687,.6479961E-4,.665E-5,0
SHIJIAN-16 (SJ-16),2013-057A,2026-07-12T20:14:26.602944,14.92666757,.0015894,74.9736,308.0885,170.5901,189.5588,0,U,39358,999,69017,.55767E-4,.547E-5,0
SL-4 R/B,2014-021B,2026-07-12T03:23:15.849024,15.42441534,.00898122,51.6063,88.4767,197.2226,162.5706,0,U,39679,999,67546,.11873934E-3,.5567E-4,0
ALOS-2,2014-029A,2026-07-12T20:09:06.165216,14.79471808,.0001601,97.9226,290.6369,92.8363,267.3032,0,U,39766,999,65537,.16582E-3,.1187E-4,0
YAOGAN-29,2015-069A,2026-07-12T21:11:28.788576,14.83102954,.0000924,98.0026,222.5547,14.6424,345.4816,0,U,41038,999,57443,-.38934E-4,-.371E-5,0
ASTRO-H (HITOMI),2016-012A,2026-07-12T11:22:56.894304,15.10625525,.00096044,30.9988,270.8641,147.9668,212.1556,0,U,41337,999,57111,.79685641E-4,.1447E-4,0
HXMT (HUIYAN),2017-034A,2026-07-12T20:27:10.077408,15.18677056,.0032518,43.0152,40.1103,306.3947,53.3904,0,U,42758,999,50156,.14151E-3,.2781E-4,0
SAOCOM 1A,2018-076A,2026-07-12T20:34:52.586976,14.82144984,.0001444,97.8888,20.2335,83.2669,276.8708,0,U,43641,999,41990,-.9973E-5,-.132E-5,0
H-2A R/B,2018-084L,2026-07-12T15:14:33.882432,15.46134702,.0020706,98.8543,78.1023,310.1111,49.8318,0,U,43682,999,42505,.2775E-3,.13595E-3,0
SAOCOM 1B,2020-059A,2026-07-12T19:42:36.984960,14.82159292,.000159,97.8892,19.2941,82.2213,277.9181,0,U,46265,999,31728,.91462E-4,.676E-5,0
CSS (TIANHE),2021-035A,2026-07-12T07:55:55.916256,15.58035041,.00024282,41.4686,169.1964,290.9815,69.0763,0,U,48274,999,29709,.14700842E-4,.806E-5,0
COSMOS 2550,2021-056A,2026-07-12T07:47:50.360352,15.33806320,.00084315,67.1435,23.8662,270.9704,89.0484,0,U,48865,999,28257,.24042311E-4,.599E-5,0
CZ-2C R/B,2022-058K,2026-07-12T18:06:17.097120,15.63720290,.0030314,50.1855,30.2996,12.2309,347.9395,0,U,52794,999,22964,.34469E-3,.33227E-3,0
CZ-2C R/B,2022-132E,2026-07-12T14:19:35.639328,15.74723535,.0009965,97.2893,201.8140,353.9386,6.1757,0,U,54039,999,20994,.32232E-3,.47389E-3,0
GSLV R/B,2022-138AN,2026-07-12T18:44:38.213376,14.97376293,.0023767,87.3818,124.3900,60.1104,300.2485,0,U,54149,999,20264,.11572E-3,.1381E-4,0
XRISM,2023-137A,2026-07-12T11:09:29.403360,15.12657724,.00078336,31.0006,195.8363,219.3306,140.6765,0,U,57800,999,15669,.10954946E-3,.2062E-4,0
ACS3,2024-077B,2026-07-11T17:46:17.954112,13.95349463,.01210111,97.1723,106.0854,40.7850,320.2298,0,U,59588,999,11146,.713075E-2,.10248E-3,0
SPACEMOBILE-003,2024-163A,2026-07-12T02:59:11.082912,15.20757146,.00039532,52.9645,194.7701,176.8899,183.2120,0,U,61045,999,10156,.15017438E-4,.8E-7,0
SPACEMOBILE-005,2024-163B,2026-07-12T08:53:56.033088,15.20767447,.00086807,52.9783,193.5770,187.3412,172.7457,0,U,61046,999,10159,.15375666E-3,.3105E-4,0
SPACEMOBILE-001,2024-163C,2026-07-11T10:46:43.885920,15.20792937,.00074751,52.9736,197.5273,183.3179,176.7767,0,U,61047,999,10145,.28550562E-4,.309E-5,0
SPACEMOBILE-002,2024-163D,2026-07-11T00:55:48.887328,15.20841812,.00066201,52.9623,199.4399,180.9990,179.0992,0,U,61048,999,10139,.38280824E-3,.8243E-4,0
SPACEMOBILE-004,2024-163E,2026-07-12T00:10:13.520352,15.20795354,.00060954,52.9667,194.7854,215.6608,144.3979,0,U,61049,999,10154,.5333705E-3,.11603E-3,0
CZ-8A R/B,2025-231K,2026-07-12T16:42:13.369248,14.30161741,.0116548,50.0046,290.7917,313.8139,45.3185,0,U,66004,999,3859,.23889E-4,-.97E-6,0
SZ-21 MODULE,2025-246C,2026-07-12T05:20:23.569728,15.78595026,.0007591,41.4697,151.1451,200.3493,159.7051,0,U,66515,999,3769,.19171E-3,.34298E-3,0
SPACEMOBILE-006,2025-309A,2026-07-12T02:49:34.429440,15.18648870,.00103537,52.9937,217.4329,205.0874,154.9618,0,U,67232,999,3038,.29209109E-4,.291E-5,0
